TIANMU-1 08             
1 57400U 23101B   26066.00237819  .00000346  00000+0  14775-4 0  9993
2 57400  97.2717 118.7901 0006380 134.2174 225.9592 15.29204229146020
STARLINK-31094          
1 58593U 23200E   26068.62192101  .00000613  00000+0  32520-4 0  9996
2 58593  43.0018 168.9694 0001394 266.7261  93.3431 15.26740016123605
